start=new Date('2022-02-21T00:00:00.000Z').valueOf();
sats=[{"FILE":"3310556","MEAN_ANOMALY":"277.4526","INCLINATION":"53.0550","MEAN_MOTION":"15.06389128","TLE_LINE1":"1 46077U 20055BC  22051.81745138 -.00000450  00000-0 -11316-4 0  9990","TLE_LINE2":"2 46077  53.0550 251.0337 0001850  82.6673 277.4526 15.06389128 86517","REF_FRAME":"TEME","REV_AT_EPOCH":"8651","OBJECT_ID":"2020-055BC","BSTAR":"-0.00001131600000","ELEMENT_SET_NO":"999","LAUNCH_DATE":"2020-08-07","OBJECT_TYPE":"PAYLOAD","NORAD_CAT_ID":"46077","GP_ID":"196511253","PERIOD":"95.593","ARG_OF_PERICENTER":"82.6673","RA_OF_ASC_NODE":"251.0337","RCS_SIZE":"LARGE","DECAY_DATE":null,"SEMIMAJOR_AXIS":"6925.382","SITE":"AFETR","MEAN_MOTION_DDOT":"0.0000000000000","MEAN_MOTION_DOT":"-0.00000450","CENTER_NAME":"EARTH","ECCENTRICITY":"0.00018500","MEAN_ELEMENT_THEORY":"SGP4","EPHEMERIS_TYPE":"0","EPOCH":"2022-02-20T19:37:07.799232","OBJECT_NAME":"STARLINK-1559","TIME_SYSTEM":"UTC","CLASSIFICATION_TYPE":"U","COUNTRY_CODE":"US","PERIAPSIS":"545.966","APOAPSIS":"548.528"},{"OBJECT_TYPE":"PAYLOAD","NORAD_CAT_ID":"46078","LAUNCH_DATE":"2020-08-07","PERIOD":"95.592","GP_ID":"196511004","TLE_LINE1":"1 46078U 20055BD  22051.86168275  .00000094  00000-0  25223-4 0  9991","MEAN_MOTION":"15.06395701","FILE":"3310556","INCLINATION":"53.0540","MEAN_ANOMALY":"294.5131","OBJECT_ID":"2020-055BD","REV_AT_EPOCH":"8653","ELEMENT_SET_NO":"999","BSTAR":"0.00002522300000","TLE_LINE2":"2 46078  53.0540 250.8567 0001505  65.6015 294.5131 15.06395701 86535","REF_FRAME":"TEME","EPOCH":"2022-02-20T20:40:49.389600","MEAN_ELEMENT_THEORY":"SGP4","ECCENTRICITY":"0.00015050","EPHEMERIS_TYPE":"0","APOAPSIS":"548.269","PERIAPSIS":"546.184","OBJECT_NAME":"STARLINK-1563","TIME_SYSTEM":"UTC","CLASSIFICATION_TYPE":"U","COUNTRY_CODE":"US","SEMIMAJOR_AXIS":"6925.362","DECAY_DATE":null,"ARG_OF_PERICENTER":"65.6015","RCS_SIZE":"LARGE","RA_OF_ASC_NODE":"250.8567","MEAN_MOTION_DOT":"0.00000094","CENTER_NAME":"EARTH","MEAN_MOTION_DDOT":"0.0000000000000","SITE":"AFETR"},{"LAUNCH_DATE":"2020-08-07","NORAD_CAT_ID":"46079","OBJECT_TYPE":"PAYLOAD","GP_ID":"196511726","PERIOD":"95.592","MEAN_ANOMALY":"285.1560","INCLINATION":"53.0526","FILE":"3310556","MEAN_MOTION":"15.06396856","TLE_LINE1":"1 46079U 20055BE  22051.85431272 -.00000218  00000-0  42670-5 0  9996","REF_FRAME":"TEME","TLE_LINE2":"2 46079  53.0526 250.8790 0001544  74.9600 285.1560 15.06396856 86561","BSTAR":"0.00000426700000","ELEMENT_SET_NO":"999","REV_AT_EPOCH":"8656","OBJECT_ID":"2020-055BE","EPHEMERIS_TYPE":"0","ECCENTRICITY":"0.00015440","MEAN_ELEMENT_THEORY":"SGP4","EPOCH":"2022-02-20T20:30:12.619008","CLASSIFICATION_TYPE":"U","COUNTRY_CODE":"US","OBJECT_NAME":"STARLINK-1566","TIME_SYSTEM":"UTC","PERIAPSIS":"546.154","APOAPSIS":"548.292","RA_OF_ASC_NODE":"250.8790","RCS_SIZE":"LARGE","ARG_OF_PERICENTER":"74.9600","SEMIMAJOR_AXIS":"6925.358","DECAY_DATE":null,"SITE":"AFETR","MEAN_MOTION_DDOT":"0.0000000000000","CENTER_NAME":"EARTH","MEAN_MOTION_DOT":"-0.00000218"},{"BSTAR":"0.00009569900000","ELEMENT_SET_NO":"999","REV_AT_EPOCH":"8653","OBJECT_ID":"2020-055BF","REF_FRAME":"TEME","TLE_LINE2":"2 46080  53.0525 251.0576 0001109  92.9436 267.1680 15.06401671 86533","MEAN_MOTION":"15.06401671","TLE_LINE1":"1 46080U 20055BF  22051.81375675  .00001144  00000-0  95699-4 0  9994","INCLINATION":"53.0525","MEAN_ANOMALY":"267.1680","FILE":"3310556","PERIOD":"95.592","GP_ID":"196510001","NORAD_CAT_ID":"46080","OBJECT_TYPE":"PAYLOAD","LAUNCH_DATE":"2020-08-07","CENTER_NAME":"EARTH","MEAN_MOTION_DOT":"0.00001144","SITE":"AFETR","MEAN_MOTION_DDOT":"0.0000000000000","SEMIMAJOR_AXIS":"6925.343","DECAY_DATE":null,"RA_OF_ASC_NODE":"251.0576","RCS_SIZE":"LARGE","ARG_OF_PERICENTER":"92.9436","PERIAPSIS":"546.440","APOAPSIS":"547.976","CLASSIFICATION_TYPE":"U","COUNTRY_CODE":"US","TIME_SYSTEM":"UTC","OBJECT_NAME":"STARLINK-1568","EPOCH":"2022-02-20T19:31:48.583200","EPHEMERIS_TYPE":"0","ECCENTRICITY":"0.00011090","MEAN_ELEMENT_THEORY":"SGP4"},{"FILE":"3310556","INCLINATION":"53.0530","MEAN_ANOMALY":"272.7161","TLE_LINE1":"1 46081U 20055BG  22051.84694476  .00000374  00000-0  43984-4 0  9995","MEAN_MOTION":"15.06399191","TLE_LINE2":"2 46081  53.0530 250.9098 0001492  87.3998 272.7161 15.06399191 86554","REF_FRAME":"TEME","OBJECT_ID":"2020-055BG","REV_AT_EPOCH":"8655","ELEMENT_SET_NO":"999","BSTAR":"0.00004398400000","LAUNCH_DATE":"2020-08-07","OBJECT_TYPE":"PAYLOAD","NORAD_CAT_ID":"46081","GP_ID":"196510753","PERIOD":"95.592","ARG_OF_PERICENTER":"87.3998","RCS_SIZE":"LARGE","RA_OF_ASC_NODE":"250.9098","DECAY_DATE":null,"SEMIMAJOR_AXIS":"6925.351","MEAN_MOTION_DDOT":"0.0000000000000","SITE":"AFETR","MEAN_MOTION_DOT":"0.00000374","CENTER_NAME":"EARTH","MEAN_ELEMENT_THEORY":"SGP4","ECCENTRICITY":"0.00014920","EPHEMERIS_TYPE":"0","EPOCH":"2022-02-20T20:19:36.027264","OBJECT_NAME":"STARLINK-1571","TIME_SYSTEM":"UTC","CLASSIFICATION_TYPE":"U","COUNTRY_CODE":"US","APOAPSIS":"548.249","PERIAPSIS":"546.183"},{"PERIOD":"95.592","GP_ID":"196511505","OBJECT_TYPE":"PAYLOAD","NORAD_CAT_ID":"46082","LAUNCH_DATE":"2020-08-07","OBJECT_ID":"2020-055BH","REV_AT_EPOCH":"8656","ELEMENT_SET_NO":"999","BSTAR":"0.00012203000000","TLE_LINE2":"2 46082  53.0531 250.8050 0001573  67.8812 292.2343 15.06404205 86564","REF_FRAME":"TEME","TLE_LINE1":"1 46082U 20055BH  22051.86904658  .00001537  00000-0  12203-3 0  9995","MEAN_MOTION":"15.06404205","FILE":"3310556","MEAN_ANOMALY":"292.2343","INCLINATION":"53.0531","APOAPSIS":"548.290","PERIAPSIS":"546.111","TIME_SYSTEM":"UTC","OBJECT_NAME":"STARLINK-1578","CLASSIFICATION_TYPE":"U","COUNTRY_CODE":"US","EPOCH":"2022-02-20T20:51:25.624512","MEAN_ELEMENT_THEORY":"SGP4","ECCENTRICITY":"0.00015730","EPHEMERIS_TYPE":"0","MEAN_MOTION_DOT":"0.00001537","CENTER_NAME":"EARTH","MEAN_MOTION_DDOT":"0.0000000000000","SITE":"AFETR","SEMIMAJOR_AXIS":"6925.336","DECAY_DATE":null,"ARG_OF_PERICENTER":"67.8812","RCS_SIZE":"LARGE","RA_OF_ASC_NODE":"250.8050"},{"TLE_LINE2":"2 46083  53.0531 250.9379 0001525  74.4608 285.6549 15.06406813 86554","REF_FRAME":"TEME","REV_AT_EPOCH":"8655","OBJECT_ID":"2020-055BJ","BSTAR":"0.00003364100000","ELEMENT_SET_NO":"999","FILE":"3310556","INCLINATION":"53.0531","MEAN_ANOMALY":"285.6549","MEAN_MOTION":"15.06406813","TLE_LINE1":"1 46083U 20055BJ  22051.83955592  .00000220  00000-0  33641-4 0  9994","GP_ID":"196511226","PERIOD":"95.592","LAUNCH_DATE":"2020-08-07","OBJECT_TYPE":"PAYLOAD","NORAD_CAT_ID":"46083","SITE":"AFETR","MEAN_MOTION_DDOT":"0.0000000000000","MEAN_MOTION_DOT":"0.00000220","CENTER_NAME":"EARTH","ARG_OF_PERICENTER":"74.4608","RA_OF_ASC_NODE":"250.9379","RCS_SIZE":"LARGE","SEMIMAJOR_AXIS":"6925.328","DECAY_DATE":null,"OBJECT_NAME":"STARLINK-1579","TIME_SYSTEM":"UTC","COUNTRY_CODE":"US","CLASSIFICATION_TYPE":"U","PERIAPSIS":"546.137","APOAPSIS":"548.249","MEAN_ELEMENT_THEORY":"SGP4","ECCENTRICITY":"0.00015250","EPHEMERIS_TYPE":"0","EPOCH":"2022-02-20T20:08:57.631488"},{"MEAN_MOTION":"15.06397857","TLE_LINE1":"1 46117U 20057A   22051.80639487 -.00000158  00000-0  82724-5 0  9991","FILE":"3310556","INCLINATION":"53.0533","MEAN_ANOMALY":"296.3042","REV_AT_EPOCH":"8359","OBJECT_ID":"2020-057A","ELEMENT_SET_NO":"999","BSTAR":"0.00000827240000","TLE_LINE2":"2 46117  53.0533  91.0979 0001480  63.8099 296.3042 15.06397857 83595","REF_FRAME":"TEME","OBJECT_TYPE":"PAYLOAD","NORAD_CAT_ID":"46117","LAUNCH_DATE":"2020-08-18","PERIOD":"95.592","GP_ID":"196511258","DECAY_DATE":null,"SEMIMAJOR_AXIS":"6925.355","ARG_OF_PERICENTER":"63.8099","RA_OF_ASC_NODE":"91.0979","RCS_SIZE":"LARGE","MEAN_MOTION_DOT":"-0.00000158","CENTER_NAME":"EARTH","SITE":"AFETR","MEAN_MOTION_DDOT":"0.0000000000000","EPOCH":"2022-02-20T19:21:12.516768","ECCENTRICITY":"0.00014800","MEAN_ELEMENT_THEORY":"SGP4","EPHEMERIS_TYPE":"0","PERIAPSIS":"546.195","APOAPSIS":"548.245","TIME_SYSTEM":"UTC","OBJECT_NAME":"STARLINK-1585","CLASSIFICATION_TYPE":"U","COUNTRY_CODE":"US"},{"PERIAPSIS":"546.204","APOAPSIS":"548.288","COUNTRY_CODE":"US","CLASSIFICATION_TYPE":"U","OBJECT_NAME":"STARLINK-1588","TIME_SYSTEM":"UTC","EPOCH":"2022-02-20T13:12:18.408384","EPHEMERIS_TYPE":"0","MEAN_ELEMENT_THEORY":"SGP4","ECCENTRICITY":"0.00015050","CENTER_NAME":"EARTH","MEAN_MOTION_DOT":"-0.00000571","SITE":"AFETR","MEAN_MOTION_DDOT":"0.0000000000000","SEMIMAJOR_AXIS":"6925.381","DECAY_DATE":null,"RA_OF_ASC_NODE":"112.2421","RCS_SIZE":"LARGE","ARG_OF_PERICENTER":"66.1292","PERIOD":"95.593","GP_ID":"196475699","NORAD_CAT_ID":"46118","OBJECT_TYPE":"PAYLOAD","LAUNCH_DATE":"2020-08-18","BSTAR":"-0.00001947400000","ELEMENT_SET_NO":"999","REV_AT_EPOCH":"8455","OBJECT_ID":"2020-057B","REF_FRAME":"TEME","TLE_LINE2":"2 46118  53.0537 112.2421 0001505  66.1292 293.9855 15.06389433 84550","MEAN_MOTION":"15.06389433","TLE_LINE1":"1 46118U 20057B   22051.55021306 -.00000571  00000-0 -19474-4 0  9990","INCLINATION":"53.0537","MEAN_ANOMALY":"293.9855","FILE":"3310073"},{"GP_ID":"196475941","PERIOD":"95.592","LAUNCH_DATE":"2020-08-18","OBJECT_TYPE":"PAYLOAD","NORAD_CAT_ID":"46119","TLE_LINE2":"2 46119  53.0550 112.6039 0001490  64.4183 295.6960 15.06399983 84522","REF_FRAME":"TEME","REV_AT_EPOCH":"8452","OBJECT_ID":"2020-057C","BSTAR":"0.00017592000000","ELEMENT_SET_NO":"999","FILE":"3310073","INCLINATION":"53.0550","MEAN_ANOMALY":"295.6960","MEAN_MOTION":"15.06399983","TLE_LINE1":"1 46119U 20057C   22051.47281296  .00002340  00000-0  17592-3 0  9990","OBJECT_NAME":"STARLINK-1593","TIME_SYSTEM":"UTC","CLASSIFICATION_TYPE":"U","COUNTRY_CODE":"US","PERIAPSIS":"546.182","APOAPSIS":"548.245","MEAN_ELEMENT_THEORY":"SGP4","ECCENTRICITY":"0.00014900","EPHEMERIS_TYPE":"0","EPOCH":"2022-02-20T11:20:51.039744","SITE":"AFETR","MEAN_MOTION_DDOT":"0.0000000000000","MEAN_MOTION_DOT":"0.00002340","CENTER_NAME":"EARTH","ARG_OF_PERICENTER":"64.4183","RA_OF_ASC_NODE":"112.6039","RCS_SIZE":"LARGE","DECAY_DATE":null,"SEMIMAJOR_AXIS":"6925.349"}];
